GLOBALSTAR M045 [-]     
1 25676U 99019A   24045.83050267 -.00000082  00000+0  10273-3 0  9996
2 25676  51.9947 257.1537 0001147  52.0437 320.9979 12.27031718133443
GLOBALSTAR M019 [-]     
1 25677U 99019B   24045.58263380 -.00000151  00000+0 -63793-3 0  9994
2 25677  51.9909 353.8513 0001415  53.3226 117.9084 12.13852407125991
GLOBALSTAR M044 [-]     
1 25678U 99019C   24045.94753712 -.00000059  00000+0  34237-3 0  9995
2 25678  51.9935 243.1181 0006389 170.2241 335.4096 11.90229063113182
GLOBALSTAR M042 [-]     
1 25679U 99019D   24045.85120341 -.00000085  00000+0  66122-4 0  9990
2 25679  52.0041 349.5070 0003344  17.5259  17.1372 12.22055617125554
GLOBALSTAR M025 [-]     
1 25770U 99031A   24045.70133735 -.00000067  00000+0  28804-4 0  9996
2 25770  51.9778 210.8761 0002143  73.0714 300.0382 11.22549397426851
GLOBALSTAR M049 [-]     
1 25771U 99031B   24045.74942560 -.00000011  00000+0  18711-2 0  9998
2 25771  51.9831 220.9823 0002128 273.0001  87.0552 11.12102836 63082
GLOBALSTAR M052 [-]     
1 25773U 99031D   24045.93688483 -.00000088  00000+0 -73922-3 0  9993
2 25773  51.9905 336.0991 0002999  78.5923 357.7783 11.15048355424046
